{
  "type": "FeatureCollection",
  "features": [
    {
      "type": "Feature",
      "properties": {
        "norad_id": 39773,
        "name": "EUTELSAT 3B",
        "group": "eutelsat",
        "lat": -0.06956686839154179,
        "lon": -43.953081560761106,
        "alt_km": 35783.261650715336,
        "timestamp": "2025-12-22T14:45:57.056321+00:00",
        "meta_object_name": "EUTELSAT 3B",
        "meta_object_id": "2014-030A",
        "meta_epoch": "2025-12-22T01:11:47.674176",
        "meta_mean_motion": 1.00272787,
        "meta_eccentricity": 0.00041421,
        "meta_inclination": 0.0612,
        "meta_ra_of_asc_node": 10.0984,
        "meta_arg_of_pericenter": 223.9018,
        "meta_mean_anomaly": 237.9083,
        "meta_ephemeris_type": 0,
        "meta_classification_type": "U",
        "meta_norad_cat_id": 39773,
        "meta_element_set_no": 999,
        "meta_rev_at_epoch": 4229,
        "meta_bstar": 0,
        "meta_mean_motion_dot": 4.2e-07,
        "meta_mean_motion_ddot": 0,
        "tle_line1": "1 39773U 14030A   25356.04985734  .00000042  00000+0  00000+0 0  9992",
        "tle_line2": "2 39773   0.0612  10.0984 0004142 223.9018 237.9083  1.00272787 42291"
      },
      "geometry": {
        "type": "Point",
        "coordinates": [
          -43.953081560761106,
          -0.06956686839154179
        ]
      }
    },
    {
      "type": "Feature",
      "properties": {
        "norad_id": 40425,
        "name": "EUTELSAT 115 WEST B",
        "group": "eutelsat",
        "lat": 0.0031596727049114934,
        "lon": -162.01456044371528,
        "alt_km": 35786.99575792336,
        "timestamp": "2025-12-22T14:45:57.056335+00:00",
        "meta_object_name": "EUTELSAT 115 WEST B",
        "meta_object_id": "2015-010B",
        "meta_epoch": "2025-12-21T14:21:48.555360",
        "meta_mean_motion": 1.00270264,
        "meta_eccentricity": 3.32e-05,
        "meta_inclination": 0.0122,
        "meta_ra_of_asc_node": 156.3186,
        "meta_arg_of_pericenter": 153.7711,
        "meta_mean_anomaly": 240.874,
        "meta_ephemeris_type": 0,
        "meta_classification_type": "U",
        "meta_norad_cat_id": 40425,
        "meta_element_set_no": 999,
        "meta_rev_at_epoch": 3961,
        "meta_bstar": 0,
        "meta_mean_motion_dot": -2e-08,
        "meta_mean_motion_ddot": 0,
        "tle_line1": "1 40425U 15010B   25355.59847865 -.00000002  00000+0  00000+0 0  9995",
        "tle_line2": "2 40425   0.0122 156.3186 0000332 153.7711 240.8740  1.00270264 39611"
      },
      "geometry": {
        "type": "Point",
        "coordinates": [
          -162.01456044371528,
          0.0031596727049114934
        ]
      }
    },
    {
      "type": "Feature",
      "properties": {
        "norad_id": 40875,
        "name": "EUTELSAT 8 WEST B",
        "group": "eutelsat",
        "lat": -0.075727825556727,
        "lon": -55.07476077239383,
        "alt_km": 35771.12346795775,
        "timestamp": "2025-12-22T14:45:57.056347+00:00",
        "meta_object_name": "EUTELSAT 8 WEST B",
        "meta_object_id": "2015-039B",
        "meta_epoch": "2025-12-22T06:16:47.683200",
        "meta_mean_motion": 1.00271154,
        "meta_eccentricity": 0.00042547,
        "meta_inclination": 0.0635,
        "meta_ra_of_asc_node": 2.3398,
        "meta_arg_of_pericenter": 269.6982,
        "meta_mean_anomaly": 265.2311,
        "meta_ephemeris_type": 0,
        "meta_classification_type": "U",
        "meta_norad_cat_id": 40875,
        "meta_element_set_no": 999,
        "meta_rev_at_epoch": 3788,
        "meta_bstar": 0,
        "meta_mean_motion_dot": -4.4e-07,
        "meta_mean_motion_ddot": 0,
        "tle_line1": "1 40875U 15039B   25356.26166300 -.00000044  00000+0  00000+0 0  9994",
        "tle_line2": "2 40875   0.0635   2.3398 0004254 269.6982 265.2311  1.00271154 37889"
      },
      "geometry": {
        "type": "Point",
        "coordinates": [
          -55.07476077239383,
          -0.075727825556727
        ]
      }
    },
    {
      "type": "Feature",
      "properties": {
        "norad_id": 41310,
        "name": "EUTELSAT 9B",
        "group": "eutelsat",
        "lat": -0.07650753889112256,
        "lon": -38.060995219987866,
        "alt_km": 35772.36726690322,
        "timestamp": "2025-12-22T14:45:57.056359+00:00",
        "meta_object_name": "EUTELSAT 9B",
        "meta_object_id": "2016-005A",
        "meta_epoch": "2025-12-22T03:54:38.524896",
        "meta_mean_motion": 1.00273048,
        "meta_eccentricity": 0.0004511,
        "meta_inclination": 0.0657,
        "meta_ra_of_asc_node": 72.7349,
        "meta_arg_of_pericenter": 203.4472,
        "meta_mean_anomaly": 242.4516,
        "meta_ephemeris_type": 0,
        "meta_classification_type": "U",
        "meta_norad_cat_id": 41310,
        "meta_element_set_no": 999,
        "meta_rev_at_epoch": 3634,
        "meta_bstar": 0,
        "meta_mean_motion_dot": 8.4e-07,
        "meta_mean_motion_ddot": 0,
        "tle_line1": "1 41310U 16005A   25356.16294589  .00000084  00000+0  00000+0 0  9996",
        "tle_line2": "2 41310   0.0657  72.7349 0004511 203.4472 242.4516  1.00273048 36349"
      },
      "geometry": {
        "type": "Point",
        "coordinates": [
          -38.060995219987866,
          -0.07650753889112256
        ]
      }
    },
    {
      "type": "Feature",
      "properties": {
        "norad_id": 41382,
        "name": "EUTELSAT 65 WEST A",
        "group": "eutelsat",
        "lat": -0.07281736774785386,
        "lon": -112.30190641378715,
        "alt_km": 35777.47243458397,
        "timestamp": "2025-12-22T14:45:57.056371+00:00",
        "meta_object_name": "EUTELSAT 65 WEST A",
        "meta_object_id": "2016-014A",
        "meta_epoch": "2025-12-22T06:19:42.019392",
        "meta_mean_motion": 1.00273317,
        "meta_eccentricity": 0.00021684,
        "meta_inclination": 0.0512,
        "meta_ra_of_asc_node": 336.4422,
        "meta_arg_of_pericenter": 297.6662,
        "meta_mean_anomaly": 206.6972,
        "meta_ephemeris_type": 0,
        "meta_classification_type": "U",
        "meta_norad_cat_id": 41382,
        "meta_element_set_no": 999,
        "meta_rev_at_epoch": 3576,
        "meta_bstar": 0,
        "meta_mean_motion_dot": -2.54e-06,
        "meta_mean_motion_ddot": 0,
        "tle_line1": "1 41382U 16014A   25356.26368078 -.00000254  00000+0  00000+0 0  9991",
        "tle_line2": "2 41382   0.0512 336.4422 0002168 297.6662 206.6972  1.00273317 35764"
      },
      "geometry": {
        "type": "Point",
        "coordinates": [
          -112.30190641378715,
          -0.07281736774785386
        ]
      }
    },
    {
      "type": "Feature",
      "properties": {
        "norad_id": 41589,
        "name": "EUTELSAT 117 WEST B",
        "group": "eutelsat",
        "lat": 0.002464802171842878,
        "lon": -164.11295064735208,
        "alt_km": 35788.95715603165,
        "timestamp": "2025-12-22T14:45:57.056383+00:00",
        "meta_object_name": "EUTELSAT 117 WEST B",
        "meta_object_id": "2016-038B",
        "meta_epoch": "2025-12-22T04:32:38.645088",
        "meta_mean_motion": 1.00265736,
        "meta_eccentricity": 5.026e-05,
        "meta_inclination": 0.0093,
        "meta_ra_of_asc_node": 137.6378,
        "meta_arg_of_pericenter": 182.9214,
        "meta_mean_anomaly": 81.6025,
        "meta_ephemeris_type": 0,
        "meta_classification_type": "U",
        "meta_norad_cat_id": 41589,
        "meta_element_set_no": 999,
        "meta_rev_at_epoch": 3488,
        "meta_bstar": 0,
        "meta_mean_motion_dot": 1.1e-07,
        "meta_mean_motion_ddot": 0,
        "tle_line1": "1 41589U 16038B   25356.18933617  .00000011  00000+0  00000+0 0  9994",
        "tle_line2": "2 41589   0.0093 137.6378 0000502 182.9214  81.6025  1.00265736 34885"
      },
      "geometry": {
        "type": "Point",
        "coordinates": [
          -164.11295064735208,
          0.002464802171842878
        ]
      }
    },
    {
      "type": "Feature",
      "properties": {
        "norad_id": 42741,
        "name": "EUTELSAT 172B",
        "group": "eutelsat",
        "lat": 0.01934232629422115,
        "lon": 124.90380235105363,
        "alt_km": 35785.371082555466,
        "timestamp": "2025-12-22T14:45:57.056395+00:00",
        "meta_object_name": "EUTELSAT 172B",
        "meta_object_id": "2017-029B",
        "meta_epoch": "2025-12-22T03:42:39.943872",
        "meta_mean_motion": 1.00271357,
        "meta_eccentricity": 2.092e-05,
        "meta_inclination": 0.0308,
        "meta_ra_of_asc_node": 122.011,
        "meta_arg_of_pericenter": 339.14,
        "meta_mean_anomaly": 217.4843,
        "meta_ephemeris_type": 0,
        "meta_classification_type": "U",
        "meta_norad_cat_id": 42741,
        "meta_element_set_no": 999,
        "meta_rev_at_epoch": 3195,
        "meta_bstar": 0,
        "meta_mean_motion_dot": 1.6e-07,
        "meta_mean_motion_ddot": 0,
        "tle_line1": "1 42741U 17029B   25356.15462898  .00000016  00000+0  00000+0 0  9996",
        "tle_line2": "2 42741   0.0308 122.0110 0000209 339.1400 217.4843  1.00271357 31952"
      },
      "geometry": {
        "type": "Point",
        "coordinates": [
          124.90380235105363,
          0.01934232629422115
        ]
      }
    }
  ]
}